      2.10          N: GNSS NAV DATA                        RINEX VERSION / TYPE
fic2rin                                 09/26/2022 00:17:45 PGM / RUN BY / DATE
                                                            END OF HEADER
29 22  9 25 14  0  0.0 -.554513651878D-03 -.306954461848D-11  .000000000000D+00
     .510000000000D+02 -.736562500000D+02  .396230790317D-08 -.470918487965D+00
    -.401958823204D-05  .221375119872D-02  .100545585155D-04  .515364326668D+04
     .504000000000D+05 -.260770320892D-07 -.617830892074D+00 -.987201929092D-07
     .979621607366D+00  .193625000000D+03  .246113319987D+01 -.781139680460D-08
    -.413588656199D-09  .100000000000D+01  .222900000000D+04  .000000000000D+00
     .240000000000D+01  .000000000000D+00 -.102445483208D-07  .510000000000D+02
     .432000000000D+05  .400000000000D+01
15 22  9 25 14  0  0.0 -.261142849922D-04  .306954461848D-11  .000000000000D+00
     .100000000000D+03 -.950625000000D+02  .535879464388D-08 -.135421141488D+01
    -.476278364658D-05  .146109845955D-01  .704452395439D-05  .515361979866D+04
     .504000000000D+05  .294297933578D-06  .231582096043D+01  .275671482086D-06
     .931038226691D+00  .224781250000D+03  .113712721048D+01 -.854321300197D-08
    -.596810573842D-09  .100000000000D+01  .222900000000D+04  .000000000000D+00
     .240000000000D+01  .000000000000D+00 -.107102096081D-07  .100000000000D+03
     .432000000000D+05  .400000000000D+01
14 22  9 25 14  0  0.0 -.100834760815D-03  .306954461848D-11  .000000000000D+00
     .132000000000D+03  .127187500000D+02  .518057293451D-08  .226313060402D+01
     .683590769768D-06  .230433233082D-02  .288151204586D-05  .515364999771D+04
     .504000000000D+05 -.391155481339D-07 -.170499869821D+01 -.558793544769D-08
     .950871176790D+00  .317375000000D+03 -.303052538216D+01 -.859571518890D-08
     .660741808263D-10  .100000000000D+01  .222900000000D+04  .000000000000D+00
     .240000000000D+01  .000000000000D+00 -.791624188423D-08  .132000000000D+03
     .432000000000D+05  .400000000000D+01
31 22  9 25 14  0  0.0 -.194603577256D-03 -.136424205266D-11  .000000000000D+00
     .260000000000D+02  .538750000000D+02  .437839666351D-08  .249782929591D+01
     .263564288616D-05  .105567857390D-01  .114832073450D-04  .515359696960D+04
     .504000000000D+05 -.158324837685D-06 -.276527128504D+01 -.113621354103D-06
     .955200012829D+00  .158375000000D+03  .431087272172D+00 -.789104297933D-08
     .296798077117D-09  .100000000000D+01  .222900000000D+04  .000000000000D+00
     .240000000000D+01  .000000000000D+00 -.135041773319D-07  .260000000000D+02
     .432000000000D+05  .400000000000D+01
30 22  9 25 14  0  0.0 -.537140294909D-03 -.113686837722D-12  .000000000000D+00
     .520000000000D+02  .626875000000D+02  .485484508093D-08  .292459225977D+01
     .309199094772D-05  .593913311604D-02  .116676092148D-04  .515371364975D+04
     .504000000000D+05 -.372529029846D-07 -.277446675799D+01 -.279396772385D-07
     .936179406510D+00  .139468750000D+03 -.265618356414D+01 -.812033824468D-08
     .355729103259D-09  .100000000000D+01  .222900000000D+04  .000000000000D+00
     .240000000000D+01  .000000000000D+00  .372529029846D-08  .520000000000D+02
     .432000000000D+05  .400000000000D+01
21 22  9 25 14  0  0.0  .158973038197D-03 -.568434188608D-12  .000000000000D+00
     .102000000000D+03  .610000000000D+02  .450340187048D-08 -.359006472049D+00
     .292621552944D-05  .243548880098D-01  .112857669592D-04  .515369814682D+04
     .504000000000D+05 -.277534127235D-06  .270929281543D+00 -.396743416786D-06
     .961131621916D+00  .169875000000D+03 -.890777558129D+00 -.827427322812D-08
     .462162108050D-09  .100000000000D+01  .222900000000D+04  .000000000000D+00
     .240000000000D+01  .000000000000D+00 -.102445483208D-07  .102000000000D+03
     .432000000000D+05  .400000000000D+01
11 22  9 25 14  0  0.0 -.194213353097D-04 -.341060513165D-11  .000000000000D+00
     .214000000000D+03  .790625000000D+02  .438268255632D-08 -.710632797417D+00
     .415742397308D-05  .739803537726D-03  .113062560558D-04  .515364420700D+04
     .504000000000D+05  .204890966415D-07  .406374976795D+00  .186264514923D-07
     .964083051826D+00  .162375000000D+03 -.311038237015D+01 -.796283168390D-08
     .498949354672D-09  .100000000000D+01  .222900000000D+04  .000000000000D+00
     .240000000000D+01  .000000000000D+00 -.838190317154D-08  .982000000000D+03
     .432000000000D+05  .400000000000D+01
10 22  9 25 14  0  0.0 -.481121242046D-05 -.159161572810D-11  .000000000000D+00
     .104000000000D+03  .258750000000D+02  .482912972407D-08  .166822558246D+01
     .136531889439D-05  .793446414173D-02  .273063778877D-05  .515367978287D+04
     .504000000000D+05 -.176951289177D-06  .139791217334D+01  .180676579475D-06
     .974833619859D+00  .336312500000D+03 -.251170456918D+01 -.849571102332D-08
     .146077513286D-09  .100000000000D+01  .222900000000D+04  .000000000000D+00
     .485000000000D+01  .000000000000D+00  .232830643654D-08  .104000000000D+03
     .432000000000D+05  .400000000000D+01
27 22  9 25 14  0  0.0  .207303091884D-03 -.488853402203D-11  .000000000000D+00
     .880000000000D+02 -.681250000000D+02  .426839208138D-08 -.370593677080D+00
    -.345334410667D-05  .106144454330D-01  .914558768272D-05  .515366279602D+04
     .504000000000D+05  .502914190292D-07 -.695316881916D+00  .156462192535D-06
     .970863709308D+00  .210937500000D+03  .687277065974D+00 -.813069581897D-08
    -.425732019162D-09  .100000000000D+01  .222900000000D+04  .000000000000D+00
     .240000000000D+01  .000000000000D+00  .139698386192D-08  .880000000000D+02
     .432000000000D+05  .400000000000D+01
26 22  9 25 14  0  0.0  .229997094721D-03  .159161572810D-11  .000000000000D+00
     .800000000000D+02  .325000000000D+02  .545594154758D-08  .139052028967D+01
     .181980431080D-05  .716802105308D-02  .302307307720D-05  .515356066513D+04
     .504000000000D+05 -.260770320892D-07 -.180080143475D+01  .894069671631D-07
     .935891197019D+00  .308718750000D+03  .375311568868D+00 -.881679582636D-08
     .900037490174D-10  .100000000000D+01  .222900000000D+04  .000000000000D+00
     .240000000000D+01  .000000000000D+00  .698491930962D-08  .800000000000D+02
     .432000000000D+05  .400000000000D+01
19 22  9 25 14  0  0.0  .215405598283D-03  .500222085975D-11  .000000000000D+00
     .101000000000D+03 -.668750000000D+02  .403159650361D-08  .178785171609D+01
    -.346079468727D-05  .911780784372D-02  .107139348984D-04  .515372466278D+04
     .504000000000D+05  .178813934326D-06 -.586648622053D+00  .558793544769D-07
     .976428951042D+00  .180250000000D+03  .218274976408D+01 -.768389149349D-08
    -.485734518507D-09  .100000000000D+01  .222900000000D+04  .000000000000D+00
     .240000000000D+01  .000000000000D+00 -.153668224812D-07  .101000000000D+03
     .432000000000D+05  .400000000000D+01
20 22  9 25 14  0  0.0  .483533833176D-03 -.306954461848D-11  .000000000000D+00
     .720000000000D+02  .474062500000D+02  .552344435934D-08 -.152409360484D+01
     .255182385445D-05  .477179454174D-02  .287778675556D-05  .515365073586D+04
     .504000000000D+05  .651925802231D-07  .123911815486D+01 -.763684511185D-07
     .944519174786D+00  .314406250000D+03 -.308923107631D+01 -.878786604989D-08
     .357872049664D-09  .100000000000D+01  .222900000000D+04  .000000000000D+00
     .340000000000D+01  .000000000000D+00 -.838190317154D-08  .720000000000D+02
     .432000000000D+05  .400000000000D+01
17 22  9 25 14  0  0.0  .662650447339D-03  .363797880709D-11  .000000000000D+00
     .730000000000D+02 -.595312500000D+02  .409802784217D-08 -.361004257848D+00
    -.330992043018D-05  .137286590179D-01  .107474625111D-04  .515362582970D+04
     .504000000000D+05 -.195577740669D-06 -.631341171677D+00  .521540641785D-07
     .977478792258D+00  .185687500000D+03 -.147958028024D+01 -.805426406386D-08
    -.378944355982D-09  .100000000000D+01  .222900000000D+04  .000000000000D+00
     .240000000000D+01  .000000000000D+00 -.111758708954D-07  .730000000000D+02
     .432000000000D+05  .400000000000D+01
22 22  9 25 14  0  0.0  .334212556481D-03  .682121026330D-11  .000000000000D+00
     .560000000000D+02 -.756875000000D+02  .456018995022D-08 -.581966385967D+00
    -.397115945816D-05  .134561819723D-01  .972300767899D-05  .515374802780D+04
     .504000000000D+05 -.162050127983D-06  .253086577802D+01  .115483999252D-06
     .962078773597D+00  .195750000000D+03 -.184444613126D+01 -.834784772137D-08
    -.514664294977D-09  .100000000000D+01  .222900000000D+04  .000000000000D+00
     .240000000000D+01  .000000000000D+00 -.791624188423D-08  .560000000000D+02
     .432000000000D+05  .400000000000D+01
25 22  9 25 14  0  0.0  .375788193196D-03  .397903932026D-11  .000000000000D+00
     .670000000000D+02  .277812500000D+02  .497127850228D-08  .214498159779D+01
     .124238431454D-05  .105583175318D-01  .315345823765D-05  .515360689354D+04
     .504000000000D+05 -.577419996262D-07 -.174963828289D+01 -.204890966415D-06
     .955056569322D+00  .315000000000D+03  .100298398338D+01 -.845892377670D-08
     .192508018732D-09  .100000000000D+01  .222900000000D+04  .000000000000D+00
     .240000000000D+01  .000000000000D+00  .558793544769D-08  .670000000000D+02
     .432000000000D+05  .400000000000D+01
23 22  9 25 14  0  0.0 -.432133674622D-06 -.454747350886D-12  .000000000000D+00
     .120000000000D+02  .342812500000D+02  .485948813147D-08  .290141630194D+01
     .186823308468D-05  .268426013645D-02  .266730785370D-05  .515361866188D+04
     .504000000000D+05 -.100582838058D-06  .137192362677D+01  .316649675369D-07
     .969935359050D+00  .333156250000D+03  .301413953812D+01 -.839570685775D-08
     .223937899341D-09  .100000000000D+01  .222900000000D+04  .000000000000D+00
     .240000000000D+01  .000000000000D+00 -.838190317154D-08  .780000000000D+03
     .432000000000D+05  .400000000000D+01
